CCSDS_OMM_VERS = 2.0
CREATION_DATE  = 
ORIGINATOR     = 

OBJECT_NAME    = KSLV-II R/B
OBJECT_ID      = 2025-274P
CENTER_NAME    = EARTH
REF_FRAME      = TEME
TIME_SYSTEM    = UTC
MEAN_ELEMENT_THEORY = SGP/SGP4

EPOCH          = 2025-12-12T19:48:15.224544
MEAN_MOTION    = 14.97302945
ECCENTRICITY   = .00522806
INCLINATION    = 97.7408
RA_OF_ASC_NODE = 274.1660
ARG_OF_PERICENTER = 319.5150
MEAN_ANOMALY   = 40.2187

EPHEMERIS_TYPE = 0
CLASSIFICATION_TYPE = U
NORAD_CAT_ID   = 66663
ELEMENT_SET_NO = 999
REV_AT_EPOCH   = 242
BSTAR          = .12317684E-2
MEAN_MOTION_DOT = .14649E-3
MEAN_MOTION_DDOT = 0

CCSDS_OMM_VERS = 2.0
CREATION_DATE  = 
ORIGINATOR     = 

OBJECT_NAME    = SOYUZ-MS 28
OBJECT_ID      = 2025-275A
CENTER_NAME    = EARTH
REF_FRAME      = TEME
TIME_SYSTEM    = UTC
MEAN_ELEMENT_THEORY = SGP/SGP4

EPOCH          = 2025-12-12T20:43:30.984384
MEAN_MOTION    = 15.49550036
ECCENTRICITY   = .00032451
INCLINATION    = 51.6304
RA_OF_ASC_NODE = 141.8664
ARG_OF_PERICENTER = 240.6311
MEAN_ANOMALY   = 119.4354

EPHEMERIS_TYPE = 0
CLASSIFICATION_TYPE = U
NORAD_CAT_ID   = 66664
ELEMENT_SET_NO = 999
REV_AT_EPOCH   = 128
BSTAR          = .25741225E-3
MEAN_MOTION_DOT = .14033E-3
MEAN_MOTION_DDOT = 0

CCSDS_OMM_VERS = 2.0
CREATION_DATE  = 
ORIGINATOR     = 

OBJECT_NAME    = STARLINK-35867
OBJECT_ID      = 2025-278A
CENTER_NAME    = EARTH
REF_FRAME      = TEME
TIME_SYSTEM    = UTC
MEAN_ELEMENT_THEORY = SGP/SGP4

EPOCH          = 2025-12-12T19:09:51.451488
MEAN_MOTION    = 15.87189628
ECCENTRICITY   = .00022639
INCLINATION    = 42.9976
RA_OF_ASC_NODE = 251.7746
ARG_OF_PERICENTER = 243.2909
MEAN_ANOMALY   = 116.7733

EPHEMERIS_TYPE = 0
CLASSIFICATION_TYPE = U
NORAD_CAT_ID   = 66791
ELEMENT_SET_NO = 999
REV_AT_EPOCH   = 184
BSTAR          = -.10184614E-2
MEAN_MOTION_DOT = -.26751E-2
MEAN_MOTION_DDOT = 0

CCSDS_OMM_VERS = 2.0
CREATION_DATE  = 
ORIGINATOR     = 

OBJECT_NAME    = STARLINK-35990
OBJECT_ID      = 2025-278B
CENTER_NAME    = EARTH
REF_FRAME      = TEME
TIME_SYSTEM    = UTC
MEAN_ELEMENT_THEORY = SGP/SGP4

EPOCH          = 2025-12-12T17:38:48.609312
MEAN_MOTION    = 15.87325977
ECCENTRICITY   = .00032094
INCLINATION    = 42.9980
RA_OF_ASC_NODE = 252.1605
ARG_OF_PERICENTER = 289.1040
MEAN_ANOMALY   = 70.9486

EPHEMERIS_TYPE = 0
CLASSIFICATION_TYPE = U
NORAD_CAT_ID   = 66792
ELEMENT_SET_NO = 999
REV_AT_EPOCH   = 183
BSTAR          = -.13782196E-2
MEAN_MOTION_DOT = -.360633E-2
MEAN_MOTION_DDOT = 0

CCSDS_OMM_VERS = 2.0
CREATION_DATE  = 
ORIGINATOR     = 

OBJECT_NAME    = STARLINK-36051
OBJECT_ID      = 2025-278C
CENTER_NAME    = EARTH
REF_FRAME      = TEME
TIME_SYSTEM    = UTC
MEAN_ELEMENT_THEORY = SGP/SGP4

EPOCH          = 2025-12-12T19:08:07.847520
MEAN_MOTION    = 15.87194207
ECCENTRICITY   = .00024027
INCLINATION    = 42.9969
RA_OF_ASC_NODE = 251.7629
ARG_OF_PERICENTER = 248.4866
MEAN_ANOMALY   = 111.5751

EPHEMERIS_TYPE = 0
CLASSIFICATION_TYPE = U
NORAD_CAT_ID   = 66793
ELEMENT_SET_NO = 999
REV_AT_EPOCH   = 184
BSTAR          = -.12635404E-2
MEAN_MOTION_DOT = -.329553E-2
MEAN_MOTION_DDOT = 0

CCSDS_OMM_VERS = 2.0
CREATION_DATE  = 
ORIGINATOR     = 

OBJECT_NAME    = STARLINK-36062
OBJECT_ID      = 2025-278D
CENTER_NAME    = EARTH
REF_FRAME      = TEME
TIME_SYSTEM    = UTC
MEAN_ELEMENT_THEORY = SGP/SGP4

EPOCH          = 2025-12-12T19:08:04.746624
MEAN_MOTION    = 15.87288015
ECCENTRICITY   = .00037515
INCLINATION    = 42.9971
RA_OF_ASC_NODE = 251.7652
ARG_OF_PERICENTER = 248.9687
MEAN_ANOMALY   = 111.0785

EPHEMERIS_TYPE = 0
CLASSIFICATION_TYPE = U
NORAD_CAT_ID   = 66794
ELEMENT_SET_NO = 999
REV_AT_EPOCH   = 184
BSTAR          = -.66143343E-2
MEAN_MOTION_DOT = -.1579906E-1
MEAN_MOTION_DDOT = 0

CCSDS_OMM_VERS = 2.0
CREATION_DATE  = 
ORIGINATOR     = 

OBJECT_NAME    = STARLINK-36047
OBJECT_ID      = 2025-278E
CENTER_NAME    = EARTH
REF_FRAME      = TEME
TIME_SYSTEM    = UTC
MEAN_ELEMENT_THEORY = SGP/SGP4

EPOCH          = 2025-12-12T19:07:26.321952
MEAN_MOTION    = 15.86958556
ECCENTRICITY   = .00028148
INCLINATION    = 42.9975
RA_OF_ASC_NODE = 251.7609
ARG_OF_PERICENTER = 270.7035
MEAN_ANOMALY   = 89.3516

EPHEMERIS_TYPE = 0
CLASSIFICATION_TYPE = U
NORAD_CAT_ID   = 66795
ELEMENT_SET_NO = 999
REV_AT_EPOCH   = 184
BSTAR          = .14480858E-3
MEAN_MOTION_DOT = .38253E-3
MEAN_MOTION_DDOT = 0

CCSDS_OMM_VERS = 2.0
CREATION_DATE  = 
ORIGINATOR     = 

OBJECT_NAME    = STARLINK-35964
OBJECT_ID      = 2025-278F
CENTER_NAME    = EARTH
REF_FRAME      = TEME
TIME_SYSTEM    = UTC
MEAN_ELEMENT_THEORY = SGP/SGP4

EPOCH          = 2025-12-12T17:48:16.146720
MEAN_MOTION    = 16.00958902
ECCENTRICITY   = .00025026
INCLINATION    = 42.9952
RA_OF_ASC_NODE = 251.3010
ARG_OF_PERICENTER = 244.5727
MEAN_ANOMALY   = 115.4893

EPHEMERIS_TYPE = 0
CLASSIFICATION_TYPE = U
NORAD_CAT_ID   = 66796
ELEMENT_SET_NO = 999
REV_AT_EPOCH   = 184
BSTAR          = -.12683625E-2
MEAN_MOTION_DOT = -.717203E-2
MEAN_MOTION_DDOT = .18122839E-3

CCSDS_OMM_VERS = 2.0
CREATION_DATE  = 
ORIGINATOR     = 

OBJECT_NAME    = STARLINK-36099
OBJECT_ID      = 2025-278G
CENTER_NAME    = EARTH
REF_FRAME      = TEME
TIME_SYSTEM    = UTC
MEAN_ELEMENT_THEORY = SGP/SGP4

EPOCH          = 2025-12-12T19:06:02.667744
MEAN_MOTION    = 15.87000336
ECCENTRICITY   = .00027478
INCLINATION    = 42.9977
RA_OF_ASC_NODE = 251.7522
ARG_OF_PERICENTER = 292.2305
MEAN_ANOMALY   = 67.8277

EPHEMERIS_TYPE = 0
CLASSIFICATION_TYPE = U
NORAD_CAT_ID   = 66797
ELEMENT_SET_NO = 999
REV_AT_EPOCH   = 184
BSTAR          = -.27305389E-3
MEAN_MOTION_DOT = -.73047E-3
MEAN_MOTION_DDOT = 0

CCSDS_OMM_VERS = 2.0
CREATION_DATE  = 
ORIGINATOR     = 

OBJECT_NAME    = STARLINK-36041
OBJECT_ID      = 2025-278H
CENTER_NAME    = EARTH
REF_FRAME      = TEME
TIME_SYSTEM    = UTC
MEAN_ELEMENT_THEORY = SGP/SGP4

EPOCH          = 2025-12-12T19:05:30.895872
MEAN_MOTION    = 15.87175725
ECCENTRICITY   = .00021186
INCLINATION    = 42.9977
RA_OF_ASC_NODE = 251.7496
ARG_OF_PERICENTER = 249.7738
MEAN_ANOMALY   = 110.2908

EPHEMERIS_TYPE = 0
CLASSIFICATION_TYPE = U
NORAD_CAT_ID   = 66798
ELEMENT_SET_NO = 999
REV_AT_EPOCH   = 184
BSTAR          = -.18647028E-2
MEAN_MOTION_DOT = -.477657E-2
MEAN_MOTION_DDOT = 0

CCSDS_OMM_VERS = 2.0
CREATION_DATE  = 
ORIGINATOR     = 

OBJECT_NAME    = STARLINK-36044
OBJECT_ID      = 2025-278J
CENTER_NAME    = EARTH
REF_FRAME      = TEME
TIME_SYSTEM    = UTC
MEAN_ELEMENT_THEORY = SGP/SGP4

EPOCH          = 2025-12-12T19:04:27.629472
MEAN_MOTION    = 15.88033118
ECCENTRICITY   = .00022124
INCLINATION    = 42.9968
RA_OF_ASC_NODE = 251.7440
ARG_OF_PERICENTER = 305.1365
MEAN_ANOMALY   = 54.9301

EPHEMERIS_TYPE = 0
CLASSIFICATION_TYPE = U
NORAD_CAT_ID   = 66799
ELEMENT_SET_NO = 999
REV_AT_EPOCH   = 184
BSTAR          = -.71569994E-2
MEAN_MOTION_DOT = -.1746316E-1
MEAN_MOTION_DDOT = 0

CCSDS_OMM_VERS = 2.0
CREATION_DATE  = 
ORIGINATOR     = 

OBJECT_NAME    = STARLINK-35996
OBJECT_ID      = 2025-278K
CENTER_NAME    = EARTH
REF_FRAME      = TEME
TIME_SYSTEM    = UTC
MEAN_ELEMENT_THEORY = SGP/SGP4

EPOCH          = 2025-12-12T19:03:11.017728
MEAN_MOTION    = 15.87350216
ECCENTRICITY   = .00034282
INCLINATION    = 42.9971
RA_OF_ASC_NODE = 251.7352
ARG_OF_PERICENTER = 246.7997
MEAN_ANOMALY   = 113.2516

EPHEMERIS_TYPE = 0
CLASSIFICATION_TYPE = U
NORAD_CAT_ID   = 66800
ELEMENT_SET_NO = 999
REV_AT_EPOCH   = 184
BSTAR          = -.60712945E-2
MEAN_MOTION_DOT = -.1439617E-1
MEAN_MOTION_DDOT = 0

