KSLV-II R/B             
1 66663U 25274P   25346.82517621  .00014649  00000+0  12318-2 0  9999
2 66663  97.7408 274.1660 0052280 319.5150  40.2187 14.97302945  2425
SOYUZ-MS 28             
1 66664U 25275A   25346.86355306  .00014033  00000+0  25741-3 0  9997
2 66664  51.6304 141.8664 0003245 240.6311 119.4354 15.49550036  1286
STARLINK-35867          
1 66791U 25278A   25346.79851217 -.00267510  00000+0 -10185-2 0  9992
2 66791  42.9976 251.7746 0002263 243.2909 116.7733 15.87189628  1848
STARLINK-35990          
1 66792U 25278B   25346.73528483 -.00360633  00000+0 -13782-2 0  9999
2 66792  42.9980 252.1605 0003209 289.1040  70.9486 15.87325977  1833
STARLINK-36051          
1 66793U 25278C   25346.79731305 -.00329553  00000+0 -12635-2 0  9997
2 66793  42.9969 251.7629 0002402 248.4866 111.5751 15.87194207  1848
STARLINK-36062          
1 66794U 25278D   25346.79727716 -.01579906  00000+0 -66143-2 0  9992
2 66794  42.9971 251.7652 0003751 248.9687 111.0785 15.87288015  1845
STARLINK-36047          
1 66795U 25278E   25346.79683243  .00038253  00000+0  14481-3 0  9990
2 66795  42.9975 251.7609 0002814 270.7035  89.3516 15.86958556  1843
STARLINK-35964          
1 66796U 25278F   25346.74185355 -.00717203  18123-3 -12684-2 0  9999
2 66796  42.9952 251.3010 0002502 244.5727 115.4893 16.00958902  1843
STARLINK-36099          
1 66797U 25278G   25346.79586421 -.00073047  00000+0 -27305-3 0  9993
2 66797  42.9977 251.7522 0002747 292.2305  67.8277 15.87000336  1845
STARLINK-36041          
1 66798U 25278H   25346.79549648 -.00477657  00000+0 -18647-2 0  9997
2 66798  42.9977 251.7496 0002118 249.7738 110.2908 15.87175725  1844
STARLINK-36044          
1 66799U 25278J   25346.79476423 -.01746316  00000+0 -71570-2 0  9994
2 66799  42.9968 251.7440 0002212 305.1365  54.9301 15.88033118  1843
STARLINK-35996          
1 66800U 25278K   25346.79387752 -.01439617  00000+0 -60713-2 0  9993
2 66800  42.9971 251.7352 0003428 246.7997 113.2516 15.87350216  1840
